STARLINK-5440           
1 54785U 22175AD  26068.16727560 -.00000061  00000+0  14243-4 0  9997
2 54785  53.2198 351.3345 0001363  87.6535 272.4613 15.08837177180618
LEMUR-2-AHMED-ASRAR     
1 60576U 24149DN  26068.73265438  .00013045  00000+0  79773-3 0  9992
2 60576  97.7021 152.9847 0001633  18.5035 341.6253 15.10376432 85541
